[{"OBJECT_NAME":"STARLINK-31814","OBJECT_ID":"2024-093W","EPOCH":"2026-03-09T10:46:34.818240","MEAN_MOTION":15.27567041,"ECCENTRICITY":0.00017412,"INCLINATION":43.0057,"RA_OF_ASC_NODE":210.6688,"ARG_OF_PERICENTER":271.9485,"MEAN_ANOMALY":88.1168,"EPHEMERIS_TYPE":0,"CLASSIFICATION_TYPE":"U","NORAD_CAT_ID":59802,"ELEMENT_SET_NO":999,"REV_AT_EPOCH":10265,"BSTAR":-0.00011881057,"MEAN_MOTION_DOT":-3.529e-5,"MEAN_MOTION_DDOT":0},{"OBJECT_NAME":"CZ-4C R\/B","OBJECT_ID":"2013-037D","EPOCH":"2026-03-09T18:06:56.075616","MEAN_MOTION":15.35625196,"ECCENTRICITY":0.00667653,"INCLINATION":97.9623,"RA_OF_ASC_NODE":344.221,"ARG_OF_PERICENTER":268.5523,"MEAN_ANOMALY":90.807,"EPHEMERIS_TYPE":0,"CLASSIFICATION_TYPE":"U","NORAD_CAT_ID":39211,"ELEMENT_SET_NO":999,"REV_AT_EPOCH":69561,"BSTAR":0.000391022,"MEAN_MOTION_DOT":0.00014492,"MEAN_MOTION_DDOT":0}]
